{
    "links": {
        "self": "http://www.neowsapp.com/rest/v1/neo/3289929?api_key=iIulBulltgU6a56xZRHN4H3l9WmuAYTsLGpBGhQ2"
    },
    "id": "3289929",
    "neo_reference_id": "3289929",
    "name": "(2005 RX3)",
    "designation": "2005 RX3",
    "nasa_jpl_url": "http://ssd.jpl.nasa.gov/sbdb.cgi?sstr=3289929",
    "absolute_magnitude_h": 22.3,
    "estimated_diameter": {
        "kilometers": {
            "estimated_diameter_min": 0.0921626549,
            "estimated_diameter_max": 0.2060819612
        },
        "meters": {
            "estimated_diameter_min": 92.1626548503,
            "estimated_diameter_max": 206.0819612321
        },
        "miles": {
            "estimated_diameter_min": 0.057267201,
            "estimated_diameter_max": 0.1280533543
        },
        "feet": {
            "estimated_diameter_min": 302.370924539,
            "estimated_diameter_max": 676.1219416887
        }
    },
    "is_potentially_hazardous_asteroid": false,
    "close_approach_data": [
        {
            "close_approach_date": "2005-09-18",
            "close_approach_date_full": "2005-Sep-18 20:50",
            "epoch_date_close_approach": 1127076600000,
            "relative_velocity": {
                "kilometers_per_second": "17.1881374466",
                "kilometers_per_hour": "61877.2948079",
                "miles_per_hour": "38448.1446543866"
            },
            "miss_distance": {
                "astronomical": "0.025721607",
                "lunar": "10.005705123",
                "kilometers": "3847897.62017709",
                "miles": "2390972.710300242"
            },
            "orbiting_body": "Earth"
        }
    ],
    "orbital_data": {
        "orbit_id": "8",
        "orbit_determination_date": "2017-04-06 09:10:31",
        "first_observation_date": "2005-09-06",
        "last_observation_date": "2005-09-09",
        "data_arc_in_days": 3,
        "observations_used": 27,
        "orbit_uncertainty": "9",
        "minimum_orbit_intersection": ".0245411",
        "jupiter_tisserand_invariant": "4.268",
        "epoch_osculation": "2453621.5",
        "eccentricity": ".5323812075788926",
        "semi_major_axis": "1.535878692829098",
        "inclination": "16.89867748225463",
        "ascending_node_longitude": ".3201440058392632",
        "orbital_period": "695.2384779275625",
        "perihelion_distance": ".7182057396460515",
        "perihelion_argument": "73.95526365287863",
        "aphelion_distance": "2.353551646012144",
        "perihelion_time": "2453681.602618339256",
        "mean_anomaly": "328.8783873605072",
        "mean_motion": ".5178079341539389",
        "equinox": "J2000",
        "orbit_class": {
            "orbit_class_type": "APO",
            "orbit_class_description": "Near-Earth asteroid orbits which cross the Earth’s orbit similar to that of 1862 Apollo",
            "orbit_class_range": "a (semi-major axis) > 1.0 AU; q (perihelion) < 1.017 AU"
        }
    },
    "is_sentry_object": false
}